{
  "type": "FeatureCollection",
  "features": [
    {
      "type": "Feature",
      "properties": {
        "norad_id": 38755,
        "name": "SPOT 6",
        "group": "resource",
        "lat": 58.48548062054071,
        "lon": -101.06030569948373,
        "alt_km": 691.6027101890368,
        "timestamp": "2025-12-26T21:25:52.663340+00:00",
        "meta_object_name": "SPOT 6",
        "meta_object_id": "2012-047A",
        "meta_epoch": "2025-12-26T14:17:42.321408",
        "meta_mean_motion": 14.5854533,
        "meta_eccentricity": 0.00012348,
        "meta_inclination": 98.1549,
        "meta_ra_of_asc_node": 65.1233,
        "meta_arg_of_pericenter": 76.5824,
        "meta_mean_anomaly": 283.5513,
        "meta_ephemeris_type": 0,
        "meta_classification_type": "U",
        "meta_norad_cat_id": 38755,
        "meta_element_set_no": 999,
        "meta_rev_at_epoch": 70789,
        "meta_bstar": 0.00015142272,
        "meta_mean_motion_dot": 6.59e-06,
        "meta_mean_motion_ddot": 0,
        "tle_line1": "1 38755U 12047A   25360.59562872  .00000659  00000+0  15142-3 0  9997",
        "tle_line2": "2 38755  98.1549  65.1233 0001234  76.5824 283.5513 14.58545330707894"
      },
      "geometry": {
        "type": "Point",
        "coordinates": [
          -101.06030569948373,
          58.48548062054071
        ]
      }
    },
    {
      "type": "Feature",
      "properties": {
        "norad_id": 39019,
        "name": "PLEIADES 1B",
        "group": "resource",
        "lat": 18.71253549001104,
        "lon": 70.5284596420618,
        "alt_km": 697.7306714058222,
        "timestamp": "2025-12-26T21:25:52.663350+00:00",
        "meta_object_name": "PLEIADES 1B",
        "meta_object_id": "2012-068A",
        "meta_epoch": "2025-12-26T14:45:32.925888",
        "meta_mean_motion": 14.58566464,
        "meta_eccentricity": 0.00011581,
        "meta_inclination": 98.1773,
        "meta_ra_of_asc_node": 73.0467,
        "meta_arg_of_pericenter": 85.4977,
        "meta_mean_anomaly": 274.6355,
        "meta_ephemeris_type": 0,
        "meta_classification_type": "U",
        "meta_norad_cat_id": 39019,
        "meta_element_set_no": 999,
        "meta_rev_at_epoch": 69569,
        "meta_bstar": 0.00016421584,
        "meta_mean_motion_dot": 7.18e-06,
        "meta_mean_motion_ddot": 0,
        "tle_line1": "1 39019U 12068A   25360.61496442  .00000718  00000+0  16422-3 0  9994",
        "tle_line2": "2 39019  98.1773  73.0467 0001158  85.4977 274.6355 14.58566464695697"
      },
      "geometry": {
        "type": "Point",
        "coordinates": [
          70.5284596420618,
          18.71253549001104
        ]
      }
    },
    {
      "type": "Feature",
      "properties": {
        "norad_id": 39030,
        "name": "GOKTURK 2",
        "group": "resource",
        "lat": 5.428388804823337,
        "lon": -158.88534533571573,
        "alt_km": 646.6438116217851,
        "timestamp": "2025-12-26T21:25:52.663361+00:00",
        "meta_object_name": "GOKTURK 2",
        "meta_object_id": "2012-073A",
        "meta_epoch": "2025-12-26T14:53:43.657152",
        "meta_mean_motion": 14.75310797,
        "meta_eccentricity": 0.00014928,
        "meta_inclination": 97.6886,
        "meta_ra_of_asc_node": 201.5914,
        "meta_arg_of_pericenter": 107.2031,
        "meta_mean_anomaly": 252.9342,
        "meta_ephemeris_type": 0,
        "meta_classification_type": "U",
        "meta_norad_cat_id": 39030,
        "meta_element_set_no": 999,
        "meta_rev_at_epoch": 69906,
        "meta_bstar": 0.00012656144,
        "meta_mean_motion_dot": 8.1e-06,
        "meta_mean_motion_ddot": 0,
        "tle_line1": "1 39030U 12073A   25360.62064418  .00000810  00000+0  12656-3 0  9996",
        "tle_line2": "2 39030  97.6886 201.5914 0001492 107.2031 252.9342 14.75310797699064"
      },
      "geometry": {
        "type": "Point",
        "coordinates": [
          -158.88534533571573,
          5.428388804823337
        ]
      }
    },
    {
      "type": "Feature",
      "properties": {
        "norad_id": 39084,
        "name": "LANDSAT 8",
        "group": "resource",
        "lat": 63.21033632371475,
        "lon": -94.63794383380963,
        "alt_km": 695.6390041381128,
        "timestamp": "2025-12-26T21:25:52.663371+00:00",
        "meta_object_name": "LANDSAT 8",
        "meta_object_id": "2013-008A",
        "meta_epoch": "2025-12-26T14:18:38.583360",
        "meta_mean_motion": 14.57116314,
        "meta_eccentricity": 0.00010531,
        "meta_inclination": 98.2055,
        "meta_ra_of_asc_node": 68.4641,
        "meta_arg_of_pericenter": 93.9516,
        "meta_mean_anomaly": 266.1803,
        "meta_ephemeris_type": 0,
        "meta_classification_type": "U",
        "meta_norad_cat_id": 39084,
        "meta_element_set_no": 999,
        "meta_rev_at_epoch": 67276,
        "meta_bstar": 0.00010852248,
        "meta_mean_motion_dot": 4.44e-06,
        "meta_mean_motion_ddot": 0,
        "tle_line1": "1 39084U 13008A   25360.59627990  .00000444  00000+0  10852-3 0  9999",
        "tle_line2": "2 39084  98.2055  68.4641 0001053  93.9516 266.1803 14.57116314672763"
      },
      "geometry": {
        "type": "Point",
        "coordinates": [
          -94.63794383380963,
          63.21033632371475
        ]
      }
    },
    {
      "type": "Feature",
      "properties": {
        "norad_id": 39086,
        "name": "SARAL",
        "group": "resource",
        "lat": -56.66213994540444,
        "lon": -162.1406427023445,
        "alt_km": 791.1637499408771,
        "timestamp": "2025-12-26T21:25:52.663381+00:00",
        "meta_object_name": "SARAL",
        "meta_object_id": "2013-009A",
        "meta_epoch": "2025-12-26T14:59:44.948256",
        "meta_mean_motion": 14.32761864,
        "meta_eccentricity": 0.00029527,
        "meta_inclination": 98.5504,
        "meta_ra_of_asc_node": 184.374,
        "meta_arg_of_pericenter": 82.5402,
        "meta_mean_anomaly": 277.6117,
        "meta_ephemeris_type": 0,
        "meta_classification_type": "U",
        "meta_norad_cat_id": 39086,
        "meta_element_set_no": 999,
        "meta_rev_at_epoch": 67089,
        "meta_bstar": 7.0169332e-05,
        "meta_mean_motion_dot": 1.47e-06,
        "meta_mean_motion_ddot": 0,
        "tle_line1": "1 39086U 13009A   25360.62482579  .00000147  00000+0  70169-4 0  9996",
        "tle_line2": "2 39086  98.5504 184.3740 0002952  82.5402 277.6117 14.32761864670898"
      },
      "geometry": {
        "type": "Point",
        "coordinates": [
          -162.1406427023445,
          -56.66213994540444
        ]
      }
    },
    {
      "type": "Feature",
      "properties": {
        "norad_id": 39150,
        "name": "GAOFEN-1",
        "group": "resource",
        "lat": 33.63070204999026,
        "lon": -103.37907054263367,
        "alt_km": 629.1938632190031,
        "timestamp": "2025-12-26T21:25:52.663391+00:00",
        "meta_object_name": "GAOFEN-1",
        "meta_object_id": "2013-018A",
        "meta_epoch": "2025-12-26T14:16:06.612672",
        "meta_mean_motion": 14.76505295,
        "meta_eccentricity": 0.00185636,
        "meta_inclination": 97.9306,
        "meta_ra_of_asc_node": 71.0075,
        "meta_arg_of_pericenter": 101.0382,
        "meta_mean_anomaly": 259.2917,
        "meta_ephemeris_type": 0,
        "meta_classification_type": "U",
        "meta_norad_cat_id": 39150,
        "meta_element_set_no": 999,
        "meta_rev_at_epoch": 68277,
        "meta_bstar": 0.00017650276,
        "meta_mean_motion_dot": 1.182e-05,
        "meta_mean_motion_ddot": 0,
        "tle_line1": "1 39150U 13018A   25360.59452098  .00001182  00000+0  17650-3 0  9992",
        "tle_line2": "2 39150  97.9306  71.0075 0018563 101.0382 259.2917 14.76505295682771"
      },
      "geometry": {
        "type": "Point",
        "coordinates": [
          -103.37907054263367,
          33.63070204999026
        ]
      }
    },
    {
      "type": "Feature",
      "properties": {
        "norad_id": 39160,
        "name": "VNREDSAT 1",
        "group": "resource",
        "lat": -20.985432670981368,
        "lon": 58.737089841732974,
        "alt_km": 682.7008421531218,
        "timestamp": "2025-12-26T21:25:52.663402+00:00",
        "meta_object_name": "VNREDSAT 1",
        "meta_object_id": "2013-021B",
        "meta_epoch": "2025-12-26T14:58:14.724192",
        "meta_mean_motion": 14.64944333,
        "meta_eccentricity": 0.00011645,
        "meta_inclination": 97.9349,
        "meta_ra_of_asc_node": 55.4107,
        "meta_arg_of_pericenter": 81.6153,
        "meta_mean_anomaly": 278.5182,
        "meta_ephemeris_type": 0,
        "meta_classification_type": "U",
        "meta_norad_cat_id": 39160,
        "meta_element_set_no": 999,
        "meta_rev_at_epoch": 67502,
        "meta_bstar": 0.00020219573,
        "meta_mean_motion_dot": 1.036e-05,
        "meta_mean_motion_ddot": 0,
        "tle_line1": "1 39160U 13021B   25360.62378153  .00001036  00000+0  20220-3 0  9995",
        "tle_line2": "2 39160  97.9349  55.4107 0001164  81.6153 278.5182 14.64944333675024"
      },
      "geometry": {
        "type": "Point",
        "coordinates": [
          58.737089841732974,
          -20.985432670981368
        ]
      }
    }
  ]
}